{
  "type": "FeatureCollection",
  "features": [
    {
      "type": "Feature",
      "id": "catchment_1109",
      "properties": {
        "station_id": "1109",
        "station_name": "คลองลำปลาทิว ลาดกระบัง",
        "catchment_area_km2": 4.02,
        "contributing_cells": 4233
      },
      "geometry": {
        "type": "Polygon",
        "coordinates": [
          [
            [
              100.807582,
              13.718506
            ],
            [
              100.804804,
              13.719617
            ],
            [
              100.799249,
              13.738783
            ],
            [
              100.803693,
              13.747672
            ],
            [
              100.804804,
              13.747394
            ],
            [
              100.812027,
              13.743506
            ],
            [
              100.833971,
              13.726283
            ],
            [
              100.83536,
              13.724339
            ],
            [
              100.807582,
              13.718506
            ]
          ]
        ]
      }
    },
    {
      "type": "Feature",
      "id": "catchment_1114",
      "properties": {
        "station_id": "1114",
        "station_name": "คลองลาดพร้าว ปากคลอง2สายใต้",
        "catchment_area_km2": 14.36,
        "contributing_cells": 15119
      },
      "geometry": {
        "type": "Polygon",
        "coordinates": [
          [
            [
              100.656193,
              13.934617
            ],
            [
              100.627304,
              13.934894
            ],
            [
              100.621749,
              13.951283
            ],
            [
              100.622582,
              13.967117
            ],
            [
              100.628416,
              13.983783
            ],
            [
              100.630916,
              13.986283
            ],
            [
              100.632304,
              13.986561
            ],
            [
              100.63786,
              13.978783
            ],
            [
              100.651471,
              13.952117
            ],
            [
              100.654249,
              13.94295
            ],
            [
              100.656193,
              13.934617
            ]
          ]
        ]
      }
    },
    {
      "type": "Feature",
      "id": "catchment_7551",
      "properties": {
        "station_id": "7551",
        "station_name": "ฝายจิตรมานี",
        "catchment_area_km2": 63.84,
        "contributing_cells": 67238
      },
      "geometry": {
        "type": "Polygon",
        "coordinates": [
          [
            [
              102.178416,
              13.043228
            ],
            [
              102.162304,
              13.043783
            ],
            [
              102.112027,
              13.113228
            ],
            [
              102.118416,
              13.129061
            ],
            [
              102.143138,
              13.131283
            ],
            [
              102.204527,
              13.116006
            ],
            [
              102.207582,
              13.062672
            ],
            [
              102.178416,
              13.043228
            ]
          ]
        ]
      }
    },
    {
      "type": "Feature",
      "id": "catchment_7552",
      "properties": {
        "station_id": "7552",
        "station_name": "ฝายน้ำล้นคลองปะตง (ทน.)",
        "catchment_area_km2": 75.83,
        "contributing_cells": 79865
      },
      "geometry": {
        "type": "Polygon",
        "coordinates": [
          [
            [
              102.168416,
              13.039617
            ],
            [
              102.160082,
              13.046561
            ],
            [
              102.11786,
              13.118783
            ],
            [
              102.12036,
              13.130172
            ],
            [
              102.169527,
              13.136839
            ],
            [
              102.185638,
              13.132672
            ],
            [
              102.219804,
              13.122117
            ],
            [
              102.203693,
              13.067117
            ],
            [
              102.197027,
              13.05545
            ],
            [
              102.18786,
              13.045172
            ],
            [
              102.17536,
              13.041283
            ],
            [
              102.168416,
              13.039617
            ]
          ]
        ]
      }
    },
    {
      "type": "Feature",
      "id": "catchment_1229",
      "properties": {
        "station_id": "1229",
        "station_name": "ปากคลองพระองค์เจ้าฯ (บางน้ำเปรี้ยว)",
        "catchment_area_km2": 0.39,
        "contributing_cells": 406
      },
      "geometry": {
        "type": "Polygon",
        "coordinates": [
          [
            [
              100.971193,
              13.83795
            ],
            [
              100.967582,
              13.838506
            ],
            [
              100.967304,
              13.838783
            ],
            [
              100.967304,
              13.840728
            ],
            [
              100.967582,
              13.842117
            ],
            [
              100.968138,
              13.843506
            ],
            [
              100.971193,
              13.842394
            ],
            [
              100.975916,
              13.839339
            ],
            [
              100.976749,
              13.838506
            ],
            [
              100.97286,
              13.83795
            ],
            [
              100.971193,
              13.83795
            ]
          ]
        ]
      }
    },
    {
      "type": "Feature",
      "id": "catchment_1234",
      "properties": {
        "station_id": "1234",
        "station_name": "บางปะกง",
        "catchment_area_km2": 0.22,
        "contributing_cells": 227
      },
      "geometry": {
        "type": "Polygon",
        "coordinates": [
          [
            [
              100.999804,
              13.545728
            ],
            [
              100.998138,
              13.547394
            ],
            [
              100.99786,
              13.548228
            ],
            [
              100.99786,
              13.548783
            ],
            [
              100.998138,
              13.549617
            ],
            [
              100.998693,
              13.55045
            ],
            [
              100.998971,
              13.550728
            ],
            [
              101.000082,
              13.551283
            ],
            [
              101.00036,
              13.551006
            ],
            [
              101.003138,
              13.54795
            ],
            [
              101.00286,
              13.547394
            ],
            [
              101.00036,
              13.545728
            ],
            [
              100.999804,
              13.545728
            ]
          ]
        ]
      }
    },
    {
      "type": "Feature",
      "id": "catchment_1236",
      "properties": {
        "station_id": "1236",
        "station_name": "พนมสารคาม",
        "catchment_area_km2": 8.44,
        "contributing_cells": 8891
      },
      "geometry": {
        "type": "Polygon",
        "coordinates": [
          [
            [
              101.325916,
              13.706006
            ],
            [
              101.326471,
              13.711006
            ],
            [
              101.328416,
              13.719894
            ],
            [
              101.334804,
              13.736006
            ],
            [
              101.346193,
              13.737117
            ],
            [
              101.347582,
              13.736561
            ],
            [
              101.368693,
              13.706839
            ],
            [
              101.325916,
              13.706006
            ]
          ]
        ]
      }
    },
    {
      "type": "Feature",
      "id": "catchment_5803",
      "properties": {
        "station_id": "5803",
        "station_name": "บ้านท่าบุญมี",
        "catchment_area_km2": 575.76,
        "contributing_cells": 606397
      },
      "geometry": {
        "type": "Polygon",
        "coordinates": [
          [
            [
              101.438138,
              13.170172
            ],
            [
              101.409249,
              13.192672
            ],
            [
              101.405082,
              13.196283
            ],
            [
              101.368416,
              13.241006
            ],
            [
              101.28036,
              13.405728
            ],
            [
              101.328693,
              13.454061
            ],
            [
              101.407304,
              13.460172
            ],
            [
              101.506471,
              13.404061
            ],
            [
              101.555082,
              13.37045
            ],
            [
              101.555082,
              13.352117
            ],
            [
              101.543693,
              13.29545
            ],
            [
              101.497027,
              13.22545
            ],
            [
              101.484249,
              13.208783
            ],
            [
              101.450082,
              13.179339
            ],
            [
              101.438138,
              13.170172
            ]
          ]
        ]
      }
    },
    {
      "type": "Feature",
      "id": "catchment_3731",
      "properties": {
        "station_id": "3731",
        "station_name": "บ้านป่าขะ",
        "catchment_area_km2": 219.86,
        "contributing_cells": 231557
      },
      "geometry": {
        "type": "Polygon",
        "coordinates": [
          [
            [
              101.070916,
              14.285172
            ],
            [
              101.06286,
              14.418783
            ],
            [
              101.158138,
              14.503506
            ],
            [
              101.188416,
              14.497672
            ],
            [
              101.200082,
              14.494339
            ],
            [
              101.209804,
              14.481561
            ],
            [
              101.21536,
              14.462672
            ],
            [
              101.21786,
              14.442117
            ],
            [
              101.206471,
              14.376283
            ],
            [
              101.177304,
              14.347672
            ],
            [
              101.070916,
              14.285172
            ]
          ]
        ]
      }
    },
    {
      "type": "Feature",
      "id": "catchment_1269",
      "properties": {
        "station_id": "1269",
        "station_name": "องครักษ์",
        "catchment_area_km2": 0.35,
        "contributing_cells": 368
      },
      "geometry": {
        "type": "Polygon",
        "coordinates": [
          [
            [
              101.023693,
              14.109061
            ],
            [
              101.022304,
              14.109617
            ],
            [
              101.020082,
              14.111839
            ],
            [
              101.019527,
              14.112394
            ],
            [
              101.018971,
              14.113228
            ],
            [
              101.018693,
              14.114061
            ],
            [
              101.018693,
              14.114894
            ],
            [
              101.018971,
              14.115172
            ],
            [
              101.021193,
              14.115728
            ],
            [
              101.023971,
              14.113783
            ],
            [
              101.025638,
              14.112117
            ],
            [
              101.025916,
              14.111561
            ],
            [
              101.025638,
              14.110172
            ],
            [
              101.023693,
              14.109061
            ]
          ]
        ]
      }
    },
    {
      "type": "Feature",
      "id": "catchment_3729",
      "properties": {
        "station_id": "3729",
        "station_name": "บ้านเขานางบวช",
        "catchment_area_km2": 527.95,
        "contributing_cells": 556038
      },
      "geometry": {
        "type": "Polygon",
        "coordinates": [
          [
            [
              101.274249,
              14.244339
            ],
            [
              101.214804,
              14.375728
            ],
            [
              101.213416,
              14.414894
            ],
            [
              101.231193,
              14.47295
            ],
            [
              101.257304,
              14.494339
            ],
            [
              101.36536,
              14.430172
            ],
            [
              101.479249,
              14.351561
            ],
            [
              101.48786,
              14.262117
            ],
            [
              101.326471,
              14.246283
            ],
            [
              101.274249,
              14.244339
            ]
          ]
        ]
      }
    },
    {
      "type": "Feature",
      "id": "catchment_257209",
      "properties": {
        "station_id": "257209",
        "station_name": "สะพานคลองนางรอง",
        "catchment_area_km2": 79.66,
        "contributing_cells": 83903
      },
      "geometry": {
        "type": "Polygon",
        "coordinates": [
          [
            [
              101.311749,
              14.313783
            ],
            [
              101.311749,
              14.429061
            ],
            [
              101.315638,
              14.437117
            ],
            [
              101.319527,
              14.439617
            ],
            [
              101.343971,
              14.44295
            ],
            [
              101.36536,
              14.431839
            ],
            [
              101.400916,
              14.367394
            ],
            [
              101.326471,
              14.318783
            ],
            [
              101.311749,
              14.313783
            ]
          ]
        ]
      }
    },
    {
      "type": "Feature",
      "id": "catchment_257210",
      "properties": {
        "station_id": "257210",
        "station_name": "สะพานคลองวังตะไคร้",
        "catchment_area_km2": 152.41,
        "contributing_cells": 160520
      },
      "geometry": {
        "type": "Polygon",
        "coordinates": [
          [
            [
              101.306193,
              14.319894
            ],
            [
              101.210082,
              14.382672
            ],
            [
              101.205638,
              14.406006
            ],
            [
              101.233693,
              14.464617
            ],
            [
              101.252304,
              14.494617
            ],
            [
              101.271193,
              14.509339
            ],
            [
              101.311193,
              14.428783
            ],
            [
              101.317027,
              14.341839
            ],
            [
              101.306193,
              14.319894
            ]
          ]
        ]
      }
    },
    {
      "type": "Feature",
      "id": "catchment_5806",
      "properties": {
        "station_id": "5806",
        "station_name": "สะพานหน้าจวนผู้ว่าฯ",
        "catchment_area_km2": 7.13,
        "contributing_cells": 7505
      },
      "geometry": {
        "type": "Polygon",
        "coordinates": [
          [
            [
              101.21786,
              14.199339
            ],
            [
              101.217582,
              14.205172
            ],
            [
              101.21786,
              14.207117
            ],
            [
              101.250916,
              14.231561
            ],
            [
              101.257582,
              14.236006
            ],
            [
              101.269804,
              14.231283
            ],
            [
              101.27036,
              14.230172
            ],
            [
              101.269804,
              14.227672
            ],
            [
              101.265082,
              14.218228
            ],
            [
              101.258138,
              14.21295
            ],
            [
              101.220082,
              14.199617
            ],
            [
              101.21786,
              14.199339
            ]
          ]
        ]
      }
    },
    {
      "type": "Feature",
      "id": "catchment_1255",
      "properties": {
        "station_id": "1255",
        "station_name": "สะพานเขานางบวช",
        "catchment_area_km2": 527.95,
        "contributing_cells": 556038
      },
      "geometry": {
        "type": "Polygon",
        "coordinates": [
          [
            [
              101.274249,
              14.244339
            ],
            [
              101.214804,
              14.375728
            ],
            [
              101.213416,
              14.414894
            ],
            [
              101.231193,
              14.47295
            ],
            [
              101.257304,
              14.494339
            ],
            [
              101.36536,
              14.430172
            ],
            [
              101.479249,
              14.351561
            ],
            [
              101.48786,
              14.262117
            ],
            [
              101.326471,
              14.246283
            ],
            [
              101.274249,
              14.244339
            ]
          ]
        ]
      }
    },
    {
      "type": "Feature",
      "id": "catchment_1140",
      "properties": {
        "station_id": "1140",
        "station_name": "คลองหกวา ลำลูกกา คลอง8",
        "catchment_area_km2": 0.46,
        "contributing_cells": 484
      },
      "geometry": {
        "type": "Polygon",
        "coordinates": [
          [
            [
              100.779527,
              13.939061
            ],
            [
              100.774249,
              13.939339
            ],
            [
              100.773971,
              13.939617
            ],
            [
              100.773971,
              13.940728
            ],
            [
              100.780638,
              13.94295
            ],
            [
              100.785082,
              13.944339
            ],
            [
              100.785916,
              13.942117
            ],
            [
              100.785916,
              13.940728
            ],
            [
              100.785082,
              13.94045
            ],
            [
              100.781471,
              13.939339
            ],
            [
              100.779527,
              13.939061
            ]
          ]
        ]
      }
    },
    {
      "type": "Feature",
      "id": "catchment_1242",
      "properties": {
        "station_id": "1242",
        "station_name": "กบินทร์บุรี",
        "catchment_area_km2": 7614.21,
        "contributing_cells": 8019316
      },
      "geometry": {
        "type": "Polygon",
        "coordinates": [
          [
            [
              102.213416,
              13.118783
            ],
            [
              102.152582,
              13.129894
            ],
            [
              102.064527,
              13.202117
            ],
            [
              101.856193,
              13.510728
            ],
            [
              101.697304,
              13.777117
            ],
            [
              101.547304,
              14.310728
            ],
            [
              101.587027,
              14.374339
            ],
            [
              101.909804,
              14.328783
            ],
            [
              102.429527,
              14.141283
            ],
            [
              102.439804,
              14.002394
            ],
            [
              102.296193,
              13.211839
            ],
            [
              102.268138,
              13.157672
            ],
            [
              102.213416,
              13.118783
            ]
          ]
        ]
      }
    },
    {
      "type": "Feature",
      "id": "catchment_5805",
      "properties": {
        "station_id": "5805",
        "station_name": "บ้านนาแขม",
        "catchment_area_km2": 2145.61,
        "contributing_cells": 2259768
      },
      "geometry": {
        "type": "Polygon",
        "coordinates": [
          [
            [
              102.164804,
              14.008228
            ],
            [
              101.878416,
              14.014339
            ],
            [
              101.758416,
              14.032117
            ],
            [
              101.690638,
              14.092672
            ],
            [
              101.496471,
              14.336283
            ],
            [
              101.451193,
              14.437394
            ],
            [
              101.50036,
              14.439894
            ],
            [
              101.89286,
              14.336561
            ],
            [
              102.265916,
              14.138783
            ],
            [
              102.24536,
              14.021839
            ],
            [
              102.164804,
              14.008228
            ]
          ]
        ]
      }
    },
    {
      "type": "Feature",
      "id": "catchment_5802",
      "properties": {
        "station_id": "5802",
        "station_name": "บ้านโนนสุขภูมิ",
        "catchment_area_km2": 4941.69,
        "contributing_cells": 5204607
      },
      "geometry": {
        "type": "Polygon",
        "coordinates": [
          [
            [
              102.182027,
              13.093506
            ],
            [
              102.100916,
              13.185728
            ],
            [
              101.887582,
              13.462394
            ],
            [
              101.806471,
              13.653783
            ],
            [
              101.836749,
              13.910172
            ],
            [
              101.903971,
              14.004339
            ],
            [
              102.371749,
              14.125728
            ],
            [
              102.436471,
              14.027394
            ],
            [
              102.43536,
              13.991839
            ],
            [
              102.304249,
              13.27295
            ],
            [
              102.255916,
              13.126561
            ],
            [
              102.182027,
              13.093506
            ]
          ]
        ]
      }
    },
    {
      "type": "Feature",
      "id": "catchment_3722",
      "properties": {
        "station_id": "3722",
        "station_name": "สะพานต้นน้ำบางปะกง",
        "catchment_area_km2": 7614.21,
        "contributing_cells": 8019316
      },
      "geometry": {
        "type": "Polygon",
        "coordinates": [
          [
            [
              102.213416,
              13.118783
            ],
            [
              102.152582,
              13.129894
            ],
            [
              102.064527,
              13.202117
            ],
            [
              101.856193,
              13.510728
            ],
            [
              101.697304,
              13.777117
            ],
            [
              101.547304,
              14.310728
            ],
            [
              101.587027,
              14.374339
            ],
            [
              101.909804,
              14.328783
            ],
            [
              102.429527,
              14.141283
            ],
            [
              102.439804,
              14.002394
            ],
            [
              102.296193,
              13.211839
            ],
            [
              102.268138,
              13.157672
            ],
            [
              102.213416,
              13.118783
            ]
          ]
        ]
      }
    },
    {
      "type": "Feature",
      "id": "catchment_10118",
      "properties": {
        "station_id": "10118",
        "station_name": "คลองห้วยยาง",
        "catchment_area_km2": 374.77,
        "contributing_cells": 394711
      },
      "geometry": {
        "type": "Polygon",
        "coordinates": [
          [
            [
              101.853416,
              14.132672
            ],
            [
              101.753693,
              14.310728
            ],
            [
              101.782582,
              14.345728
            ],
            [
              101.793138,
              14.356561
            ],
            [
              101.875082,
              14.389061
            ],
            [
              101.973693,
              14.351006
            ],
            [
              101.965916,
              14.223228
            ],
            [
              101.963971,
              14.214894
            ],
            [
              101.947582,
              14.181839
            ],
            [
              101.853416,
              14.132672
            ]
          ]
        ]
      }
    },
    {
      "type": "Feature",
      "id": "catchment_1245",
      "properties": {
        "station_id": "1245",
        "station_name": "นาดี",
        "catchment_area_km2": 634.04,
        "contributing_cells": 667776
      },
      "geometry": {
        "type": "Polygon",
        "coordinates": [
          [
            [
              101.728138,
              14.132394
            ],
            [
              101.64286,
              14.181006
            ],
            [
              101.441193,
              14.389339
            ],
            [
              101.456193,
              14.436561
            ],
            [
              101.499249,
              14.441006
            ],
            [
              101.556749,
              14.434339
            ],
            [
              101.618693,
              14.426283
            ],
            [
              101.783971,
              14.277117
            ],
            [
              101.784804,
              14.255172
            ],
            [
              101.782027,
              14.248506
            ],
            [
              101.728138,
              14.132394
            ]
          ]
        ]
      }
    },
    {
      "type": "Feature",
      "id": "catchment_7289",
      "properties": {
        "station_id": "7289",
        "station_name": "บ้านชะอม",
        "catchment_area_km2": 1239.56,
        "contributing_cells": 1305509
      },
      "geometry": {
        "type": "Polygon",
        "coordinates": [
          [
            [
              101.697304,
              14.108783
            ],
            [
              101.670638,
              14.133783
            ],
            [
              101.45786,
              14.386283
            ],
            [
              101.451471,
              14.42795
            ],
            [
              101.467582,
              14.443228
            ],
            [
              101.50036,
              14.440728
            ],
            [
              101.885916,
              14.379061
            ],
            [
              101.949527,
              14.362394
            ],
            [
              101.957027,
              14.219339
            ],
            [
              101.91786,
              14.182672
            ],
            [
              101.878416,
              14.148228
            ],
            [
              101.816193,
              14.125728
            ],
            [
              101.738971,
              14.111283
            ],
            [
              101.697304,
              14.108783
            ]
          ]
        ]
      }
    },
    {
      "type": "Feature",
      "id": "catchment_7608",
      "properties": {
        "station_id": "7608",
        "station_name": "บ้านทุ่งแฝก",
        "catchment_area_km2": 355.38,
        "contributing_cells": 374288
      },
      "geometry": {
        "type": "Polygon",
        "coordinates": [
          [
            [
              101.893416,
              14.167117
            ],
            [
              101.76536,
              14.297672
            ],
            [
              101.754804,
              14.310172
            ],
            [
              101.752027,
              14.334061
            ],
            [
              101.793138,
              14.355172
            ],
            [
              101.881193,
              14.38795
            ],
            [
              101.964527,
              14.353506
            ],
            [
              101.969249,
              14.219617
            ],
            [
              101.938416,
              14.192117
            ],
            [
              101.908138,
              14.173506
            ],
            [
              101.893416,
              14.167117
            ]
          ]
        ]
      }
    },
    {
      "type": "Feature",
      "id": "catchment_1568249",
      "properties": {
        "station_id": "1568249",
        "station_name": "บ้านหนองแหน",
        "catchment_area_km2": 634.05,
        "contributing_cells": 667780
      },
      "geometry": {
        "type": "Polygon",
        "coordinates": [
          [
            [
              101.728416,
              14.132117
            ],
            [
              101.663693,
              14.174339
            ],
            [
              101.443971,
              14.387672
            ],
            [
              101.453971,
              14.436839
            ],
            [
              101.499249,
              14.442117
            ],
            [
              101.618416,
              14.427117
            ],
            [
              101.783138,
              14.277394
            ],
            [
              101.784527,
              14.256006
            ],
            [
              101.781749,
              14.249617
            ],
            [
              101.728416,
              14.132117
            ]
          ]
        ]
      }
    },
    {
      "type": "Feature",
      "id": "catchment_7609",
      "properties": {
        "station_id": "7609",
        "station_name": "บ้านแก่งดินสอ",
        "catchment_area_km2": 566.02,
        "contributing_cells": 596136
      },
      "geometry": {
        "type": "Polygon",
        "coordinates": [
          [
            [
              102.195916,
              14.014617
            ],
            [
              102.182582,
              14.014894
            ],
            [
              101.959804,
              14.03045
            ],
            [
              101.936193,
              14.034617
            ],
            [
              101.921749,
              14.067117
            ],
            [
              101.980638,
              14.206006
            ],
            [
              102.18286,
              14.179061
            ],
            [
              102.203971,
              14.169617
            ],
            [
              102.248693,
              14.124339
            ],
            [
              102.276749,
              14.034339
            ],
            [
              102.26536,
              14.021283
            ],
            [
              102.218138,
              14.016283
            ],
            [
              102.195916,
              14.014617
            ]
          ]
        ]
      }
    },
    {
      "type": "Feature",
      "id": "catchment_257208",
      "properties": {
        "station_id": "257208",
        "station_name": "สะพานคลองลำพญาธาร",
        "catchment_area_km2": 79.77,
        "contributing_cells": 84017
      },
      "geometry": {
        "type": "Polygon",
        "coordinates": [
          [
            [
              101.883693,
              14.270728
            ],
            [
              101.803693,
              14.271561
            ],
            [
              101.79286,
              14.272117
            ],
            [
              101.755082,
              14.298506
            ],
            [
              101.751193,
              14.309339
            ],
            [
              101.75286,
              14.318228
            ],
            [
              101.761471,
              14.340728
            ],
            [
              101.784804,
              14.352394
            ],
            [
              101.79286,
              14.355172
            ],
            [
              101.847582,
              14.306839
            ],
            [
              101.883693,
              14.270728
            ]
          ]
        ]
      }
    },
    {
      "type": "Feature",
      "id": "catchment_257198",
      "properties": {
        "station_id": "257198",
        "station_name": "สะพานเจริญราษฎร์รังสรรค์",
        "catchment_area_km2": 1274.49,
        "contributing_cells": 1342297
      },
      "geometry": {
        "type": "Polygon",
        "coordinates": [
          [
            [
              101.754527,
              14.066283
            ],
            [
              101.643971,
              14.151839
            ],
            [
              101.462304,
              14.378506
            ],
            [
              101.440638,
              14.406006
            ],
            [
              101.498971,
              14.441006
            ],
            [
              101.888138,
              14.398783
            ],
            [
              101.953693,
              14.362672
            ],
            [
              101.954804,
              14.229339
            ],
            [
              101.953416,
              14.221006
            ],
            [
              101.936193,
              14.189061
            ],
            [
              101.874804,
              14.139617
            ],
            [
              101.754527,
              14.066283
            ]
          ]
        ]
      }
    },
    {
      "type": "Feature",
      "id": "catchment_5119",
      "properties": {
        "station_id": "5119",
        "station_name": "วัดบางแตน",
        "catchment_area_km2": 2.26,
        "contributing_cells": 2375
      },
      "geometry": {
        "type": "Polygon",
        "coordinates": [
          [
            [
              101.166749,
              13.901006
            ],
            [
              101.162304,
              13.901839
            ],
            [
              101.161471,
              13.902394
            ],
            [
              101.158138,
              13.904617
            ],
            [
              101.155916,
              13.911283
            ],
            [
              101.156471,
              13.916006
            ],
            [
              101.15786,
              13.917394
            ],
            [
              101.158971,
              13.91795
            ],
            [
              101.165638,
              13.913506
            ],
            [
              101.173416,
              13.90795
            ],
            [
              101.171193,
              13.903783
            ],
            [
              101.17036,
              13.902672
            ],
            [
              101.168416,
              13.901006
            ],
            [
              101.166749,
              13.901006
            ]
          ]
        ]
      }
    },
    {
      "type": "Feature",
      "id": "catchment_1568254",
      "properties": {
        "station_id": "1568254",
        "station_name": "บ้านประจันตคาม",
        "catchment_area_km2": 3.66,
        "contributing_cells": 3856
      },
      "geometry": {
        "type": "Polygon",
        "coordinates": [
          [
            [
              101.528971,
              14.067117
            ],
            [
              101.525638,
              14.071839
            ],
            [
              101.52536,
              14.07295
            ],
            [
              101.524804,
              14.075172
            ],
            [
              101.526471,
              14.07795
            ],
            [
              101.528138,
              14.08045
            ],
            [
              101.528416,
              14.080728
            ],
            [
              101.536749,
              14.082394
            ],
            [
              101.538138,
              14.081839
            ],
            [
              101.544804,
              14.077117
            ],
            [
              101.546193,
              14.076006
            ],
            [
              101.548138,
              14.072117
            ],
            [
              101.547304,
              14.071006
            ],
            [
              101.541471,
              14.067117
            ],
            [
              101.528971,
              14.067117
            ]
          ]
        ]
      }
    },
    {
      "type": "Feature",
      "id": "catchment_1249",
      "properties": {
        "station_id": "1249",
        "station_name": "ประจันตคาม (KGT7A)",
        "catchment_area_km2": 3.66,
        "contributing_cells": 3856
      },
      "geometry": {
        "type": "Polygon",
        "coordinates": [
          [
            [
              101.528971,
              14.067117
            ],
            [
              101.525638,
              14.071839
            ],
            [
              101.52536,
              14.07295
            ],
            [
              101.524804,
              14.075172
            ],
            [
              101.526471,
              14.07795
            ],
            [
              101.528138,
              14.08045
            ],
            [
              101.528416,
              14.080728
            ],
            [
              101.536749,
              14.082394
            ],
            [
              101.538138,
              14.081839
            ],
            [
              101.544804,
              14.077117
            ],
            [
              101.546193,
              14.076006
            ],
            [
              101.548138,
              14.072117
            ],
            [
              101.547304,
              14.071006
            ],
            [
              101.541471,
              14.067117
            ],
            [
              101.528971,
              14.067117
            ]
          ]
        ]
      }
    },
    {
      "type": "Feature",
      "id": "catchment_5801",
      "properties": {
        "station_id": "5801",
        "station_name": "บ้านทาม",
        "catchment_area_km2": 8181.43,
        "contributing_cells": 8616708
      },
      "geometry": {
        "type": "Polygon",
        "coordinates": [
          [
            [
              102.220082,
              13.127394
            ],
            [
              102.15286,
              13.129339
            ],
            [
              102.083138,
              13.205728
            ],
            [
              101.533693,
              13.841283
            ],
            [
              101.516193,
              13.973228
            ],
            [
              101.581471,
              14.39295
            ],
            [
              101.937582,
              14.341561
            ],
            [
              102.404527,
              14.105728
            ],
            [
              102.392304,
              13.949894
            ],
            [
              102.315082,
              13.403783
            ],
            [
              102.220082,
              13.127394
            ]
          ]
        ]
      }
    },
    {
      "type": "Feature",
      "id": "catchment_1250",
      "properties": {
        "station_id": "1250",
        "station_name": "ศรีมหาโพธิ (KGT6)",
        "catchment_area_km2": 8181.43,
        "contributing_cells": 8616708
      },
      "geometry": {
        "type": "Polygon",
        "coordinates": [
          [
            [
              102.220082,
              13.127394
            ],
            [
              102.15286,
              13.129339
            ],
            [
              102.083138,
              13.205728
            ],
            [
              101.533693,
              13.841283
            ],
            [
              101.516193,
              13.973228
            ],
            [
              101.581471,
              14.39295
            ],
            [
              101.937582,
              14.341561
            ],
            [
              102.404527,
              14.105728
            ],
            [
              102.392304,
              13.949894
            ],
            [
              102.315082,
              13.403783
            ],
            [
              102.220082,
              13.127394
            ]
          ]
        ]
      }
    },
    {
      "type": "Feature",
      "id": "catchment_3725",
      "properties": {
        "station_id": "3725",
        "station_name": "สะพานณรงค์ดำริ",
        "catchment_area_km2": 9038.8,
        "contributing_cells": 9519692
      },
      "geometry": {
        "type": "Polygon",
        "coordinates": [
          [
            [
              102.077304,
              13.127394
            ],
            [
              101.365916,
              14.051839
            ],
            [
              101.548693,
              14.43045
            ],
            [
              101.635916,
              14.407117
            ],
            [
              101.903416,
              14.323228
            ],
            [
              102.463971,
              14.132117
            ],
            [
              102.322304,
              13.411006
            ],
            [
              102.292304,
              13.29295
            ],
            [
              102.233693,
              13.219061
            ],
            [
              102.150916,
              13.130728
            ],
            [
              102.077304,
              13.127394
            ]
          ]
        ]
      }
    },
    {
      "type": "Feature",
      "id": "catchment_1127",
      "properties": {
        "station_id": "1127",
        "station_name": "คลองจระเข้ใหญ่ บางเสาธง (วัดศรีวารีน้อย)",
        "catchment_area_km2": 33.6,
        "contributing_cells": 35389
      },
      "geometry": {
        "type": "Polygon",
        "coordinates": [
          [
            [
              100.815916,
              13.594894
            ],
            [
              100.770638,
              13.595172
            ],
            [
              100.765638,
              13.598506
            ],
            [
              100.77286,
              13.639339
            ],
            [
              100.798971,
              13.667394
            ],
            [
              100.809527,
              13.652672
            ],
            [
              100.815916,
              13.625728
            ],
            [
              100.815916,
              13.594894
            ]
          ]
        ]
      }
    },
    {
      "type": "Feature",
      "id": "catchment_1568255",
      "properties": {
        "station_id": "1568255",
        "station_name": "บ้านชะอม",
        "catchment_area_km2": 128.96,
        "contributing_cells": 135819
      },
      "geometry": {
        "type": "Polygon",
        "coordinates": [
          [
            [
              101.170638,
              14.358228
            ],
            [
              101.104804,
              14.406283
            ],
            [
              101.115916,
              14.446561
            ],
            [
              101.134527,
              14.468783
            ],
            [
              101.162582,
              14.501283
            ],
            [
              101.177027,
              14.511561
            ],
            [
              101.204804,
              14.492117
            ],
            [
              101.214804,
              14.482394
            ],
            [
              101.221193,
              14.471839
            ],
            [
              101.218138,
              14.439339
            ],
            [
              101.208416,
              14.375728
            ],
            [
              101.177027,
              14.359894
            ],
            [
              101.170638,
              14.358228
            ]
          ]
        ]
      }
    },
    {
      "type": "Feature",
      "id": "catchment_1568253",
      "properties": {
        "station_id": "1568253",
        "station_name": "บ้านด่านชัยพัฒนา",
        "catchment_area_km2": 1470.09,
        "contributing_cells": 1548307
      },
      "geometry": {
        "type": "Polygon",
        "coordinates": [
          [
            [
              102.188693,
              13.091561
            ],
            [
              102.138138,
              13.11295
            ],
            [
              102.059804,
              13.155172
            ],
            [
              102.037304,
              13.218506
            ],
            [
              101.96036,
              13.446283
            ],
            [
              102.043971,
              13.555728
            ],
            [
              102.172027,
              13.497672
            ],
            [
              102.250916,
              13.407117
            ],
            [
              102.282304,
              13.358506
            ],
            [
              102.294527,
              13.327117
            ],
            [
              102.302304,
              13.298506
            ],
            [
              102.301471,
              13.285728
            ],
            [
              102.27036,
              13.136006
            ],
            [
              102.249527,
              13.119339
            ],
            [
              102.188693,
              13.091561
            ]
          ]
        ]
      }
    },
    {
      "type": "Feature",
      "id": "catchment_1568251",
      "properties": {
        "station_id": "1568251",
        "station_name": "บ้านวังเจริญ",
        "catchment_area_km2": 1.23,
        "contributing_cells": 1295
      },
      "geometry": {
        "type": "Polygon",
        "coordinates": [
          [
            [
              102.084249,
              13.43545
            ],
            [
              102.080082,
              13.437117
            ],
            [
              102.078971,
              13.439617
            ],
            [
              102.078416,
              13.442117
            ],
            [
              102.078416,
              13.443228
            ],
            [
              102.081749,
              13.447394
            ],
            [
              102.083138,
              13.447672
            ],
            [
              102.090916,
              13.441006
            ],
            [
              102.090638,
              13.44045
            ],
            [
              102.088416,
              13.43795
            ],
            [
              102.086193,
              13.436283
            ],
            [
              102.084804,
              13.43545
            ],
            [
              102.084249,
              13.43545
            ]
          ]
        ]
      }
    },
    {
      "type": "Feature",
      "id": "catchment_1568250",
      "properties": {
        "station_id": "1568250",
        "station_name": "บ้านภูเงิน",
        "catchment_area_km2": 1518.8,
        "contributing_cells": 1599603
      },
      "geometry": {
        "type": "Polygon",
        "coordinates": [
          [
            [
              102.173693,
              13.071561
            ],
            [
              102.077027,
              13.13295
            ],
            [
              102.043138,
              13.21045
            ],
            [
              102.00786,
              13.303783
            ],
            [
              101.947304,
              13.472394
            ],
            [
              102.044804,
              13.611839
            ],
            [
              102.261193,
              13.422672
            ],
            [
              102.306471,
              13.344617
            ],
            [
              102.317027,
              13.321561
            ],
            [
              102.311471,
              13.268228
            ],
            [
              102.272582,
              13.178783
            ],
            [
              102.221471,
              13.109061
            ],
            [
              102.173693,
              13.071561
            ]
          ]
        ]
      }
    },
    {
      "type": "Feature",
      "id": "catchment_3717",
      "properties": {
        "station_id": "3717",
        "station_name": "บ้านเขาฉกรรจ์",
        "catchment_area_km2": 2333.69,
        "contributing_cells": 2457851
      },
      "geometry": {
        "type": "Polygon",
        "coordinates": [
          [
            [
              102.190082,
              13.075728
            ],
            [
              102.057027,
              13.160172
            ],
            [
              101.862027,
              13.477394
            ],
            [
              101.92036,
              13.623228
            ],
            [
              102.075082,
              13.669339
            ],
            [
              102.187304,
              13.651839
            ],
            [
              102.238693,
              13.622117
            ],
            [
              102.321749,
              13.45045
            ],
            [
              102.329804,
              13.312394
            ],
            [
              102.268416,
              13.128506
            ],
            [
              102.190082,
              13.075728
            ]
          ]
        ]
      }
    },
    {
      "type": "Feature",
      "id": "catchment_1270",
      "properties": {
        "station_id": "1270",
        "station_name": "คลองพระปรง",
        "catchment_area_km2": 1612.51,
        "contributing_cells": 1698298
      },
      "geometry": {
        "type": "Polygon",
        "coordinates": [
          [
            [
              102.200916,
              13.73545
            ],
            [
              101.920638,
              13.936839
            ],
            [
              102.021749,
              14.018506
            ],
            [
              102.273693,
              14.11045
            ],
            [
              102.418693,
              14.150728
            ],
            [
              102.532027,
              14.021561
            ],
            [
              102.422582,
              13.915728
            ],
            [
              102.250916,
              13.752394
            ],
            [
              102.200916,
              13.73545
            ]
          ]
        ]
      }
    },
    {
      "type": "Feature",
      "id": "catchment_1568252",
      "properties": {
        "station_id": "1568252",
        "station_name": "บ้านท่าระพา",
        "catchment_area_km2": 2705.64,
        "contributing_cells": 2849590
      },
      "geometry": {
        "type": "Polygon",
        "coordinates": [
          [
            [
              102.146193,
              13.103228
            ],
            [
              102.088416,
              13.136839
            ],
            [
              101.849527,
              13.51795
            ],
            [
              101.954249,
              13.898228
            ],
            [
              102.21786,
              13.654061
            ],
            [
              102.269527,
              13.56545
            ],
            [
              102.304804,
              13.43545
            ],
            [
              102.306193,
              13.426561
            ],
            [
              102.323971,
              13.294061
            ],
            [
              102.285916,
              13.121561
            ],
            [
              102.146193,
              13.103228
            ]
          ]
        ]
      }
    },
    {
      "type": "Feature",
      "id": "catchment_3719",
      "properties": {
        "station_id": "3719",
        "station_name": "บ้านเนินผาสุก",
        "catchment_area_km2": 2555.14,
        "contributing_cells": 2691083
      },
      "geometry": {
        "type": "Polygon",
        "coordinates": [
          [
            [
              102.155638,
              13.077672
            ],
            [
              102.086749,
              13.133783
            ],
            [
              101.82536,
              13.507394
            ],
            [
              101.863693,
              13.55795
            ],
            [
              102.05536,
              13.804061
            ],
            [
              102.154527,
              13.706283
            ],
            [
              102.291749,
              13.468228
            ],
            [
              102.315638,
              13.268228
            ],
            [
              102.265638,
              13.201839
            ],
            [
              102.207582,
              13.131839
            ],
            [
              102.174804,
              13.097117
            ],
            [
              102.155638,
              13.077672
            ]
          ]
        ]
      }
    },
    {
      "type": "Feature",
      "id": "catchment_7606",
      "properties": {
        "station_id": "7606",
        "station_name": "บ้านแก้ง",
        "catchment_area_km2": 1503.71,
        "contributing_cells": 1583713
      },
      "geometry": {
        "type": "Polygon",
        "coordinates": [
          [
            [
              102.199249,
              13.680728
            ],
            [
              102.186471,
              13.686839
            ],
            [
              101.971193,
              13.93795
            ],
            [
              102.003138,
              13.981006
            ],
            [
              102.084249,
              14.032672
            ],
            [
              102.26536,
              14.114061
            ],
            [
              102.397582,
              14.144617
            ],
            [
              102.425082,
              14.126006
            ],
            [
              102.539527,
              14.041839
            ],
            [
              102.532304,
              14.019617
            ],
            [
              102.232304,
              13.696283
            ],
            [
              102.199249,
              13.680728
            ]
          ]
        ]
      }
    },
    {
      "type": "Feature",
      "id": "catchment_1271",
      "properties": {
        "station_id": "1271",
        "station_name": "เมืองสระแก้ว",
        "catchment_area_km2": 2555.14,
        "contributing_cells": 2691083
      },
      "geometry": {
        "type": "Polygon",
        "coordinates": [
          [
            [
              102.155638,
              13.077672
            ],
            [
              102.086749,
              13.133783
            ],
            [
              101.82536,
              13.507394
            ],
            [
              101.863693,
              13.55795
            ],
            [
              102.05536,
              13.804061
            ],
            [
              102.154527,
              13.706283
            ],
            [
              102.291749,
              13.468228
            ],
            [
              102.315638,
              13.268228
            ],
            [
              102.265638,
              13.201839
            ],
            [
              102.207582,
              13.131839
            ],
            [
              102.174804,
              13.097117
            ],
            [
              102.155638,
              13.077672
            ]
          ]
        ]
      }
    }
  ]
}