{
  "type": "FeatureCollection",
  "features": [
    {
      "type": "Feature",
      "properties": {
        "basin_slug": "chao-phraya",
        "basin_name_th": "ลุ่มน้ำเจ้าพระยา",
        "source": "ThaiWater (HII Official)",
        "min_lat": 13.492,
        "max_lat": 16.117,
        "min_lon": 99.43,
        "max_lon": 101.089
      },
      "geometry": {
        "type": "Polygon",
        "coordinates": [
          [
            [
              100.679,
              13.508
            ],
            [
              100.7,
              13.607
            ],
            [
              100.732,
              13.698
            ],
            [
              100.747,
              13.723
            ],
            [
              100.748,
              13.821
            ],
            [
              100.742,
              13.822
            ],
            [
              100.722,
              13.859
            ],
            [
              100.722,
              13.914
            ],
            [
              100.685,
              13.93
            ],
            [
              100.632,
              13.92
            ],
            [
              100.617,
              13.983
            ],
            [
              100.686,
              13.999
            ],
            [
              100.76,
              14.03
            ],
            [
              100.904,
              14.08
            ],
            [
              100.955,
              14.098
            ],
            [
              100.997,
              14.122
            ],
            [
              100.955,
              14.198
            ],
            [
              101.002,
              14.232
            ],
            [
              101.036,
              14.267
            ],
            [
              101.072,
              14.325
            ],
            [
              101.089,
              14.369
            ],
            [
              101.078,
              14.396
            ],
            [
              101.062,
              14.415
            ],
            [
              101.016,
              14.41
            ],
            [
              100.991,
              14.419
            ],
            [
              100.959,
              14.424
            ],
            [
              100.938,
              14.469
            ],
            [
              100.937,
              14.469
            ],
            [
              100.938,
              14.469
            ],
            [
              100.937,
              14.469
            ],
            [
              100.915,
              14.488
            ],
            [
              100.913,
              14.529
            ],
            [
              100.866,
              14.55
            ],
            [
              100.811,
              14.557
            ],
            [
              100.762,
              14.555
            ],
            [
              100.744,
              14.531
            ],
            [
              100.688,
              14.528
            ],
            [
              100.677,
              14.499
            ],
            [
              100.626,
              14.488
            ],
            [
              100.601,
              14.493
            ],
            [
              100.571,
              14.538
            ],
            [
              100.593,
              14.563
            ],
            [
              100.587,
              14.611
            ],
            [
              100.627,
              14.622
            ],
            [
              100.651,
              14.589
            ],
            [
              100.726,
              14.626
            ],
            [
              100.743,
              14.643
            ],
            [
              100.737,
              14.68
            ],
            [
              100.709,
              14.718
            ],
            [
              100.756,
              14.735
            ],
            [
              100.788,
              14.761
            ],
            [
              100.809,
              14.794
            ],
            [
              100.841,
              14.802
            ],
            [
              100.834,
              14.822
            ],
            [
              100.775,
              14.889
            ],
            [
              100.774,
              14.904
            ],
            [
              100.832,
              14.919
            ],
            [
              100.874,
              14.966
            ],
            [
              100.885,
              15.008
            ],
            [
              100.885,
              15.016
            ],
            [
              100.897,
              15.038
            ],
            [
              100.927,
              15.075
            ],
            [
              100.932,
              15.159
            ],
            [
              100.972,
              15.196
            ],
            [
              100.965,
              15.219
            ],
            [
              100.982,
              15.251
            ],
            [
              100.959,
              15.288
            ],
            [
              100.937,
              15.291
            ],
            [
              100.923,
              15.305
            ],
            [
              100.921,
              15.321
            ],
            [
              100.921,
              15.327
            ],
            [
              100.914,
              15.338
            ],
            [
              100.914,
              15.339
            ],
            [
              100.914,
              15.338
            ],
            [
              100.914,
              15.339
            ],
            [
              100.9,
              15.363
            ],
            [
              100.882,
              15.455
            ],
            [
              100.933,
              15.517
            ],
            [
              100.889,
              15.548
            ],
            [
              100.885,
              15.577
            ],
            [
              100.827,
              15.593
            ],
            [
              100.825,
              15.612
            ],
            [
              100.9,
              15.647
            ],
            [
              100.907,
              15.69
            ],
            [
              100.952,
              15.718
            ],
            [
              100.935,
              15.748
            ],
            [
              100.941,
              15.786
            ],
            [
              100.938,
              15.81
            ],
            [
              100.93,
              15.819
            ],
            [
              100.922,
              15.837
            ],
            [
              100.919,
              15.854
            ],
            [
              100.912,
              15.87
            ],
            [
              100.91,
              15.881
            ],
            [
              100.91,
              15.882
            ],
            [
              100.908,
              15.898
            ],
            [
              100.899,
              15.905
            ],
            [
              100.888,
              15.946
            ],
            [
              100.896,
              15.949
            ],
            [
              100.897,
              15.954
            ],
            [
              100.931,
              15.973
            ],
            [
              100.939,
              15.977
            ],
            [
              100.945,
              15.983
            ],
            [
              100.976,
              15.997
            ],
            [
              100.988,
              16.021
            ],
            [
              100.988,
              16.043
            ],
            [
              100.963,
              16.066
            ],
            [
              100.926,
              16.076
            ],
            [
              100.887,
              16.066
            ],
            [
              100.858,
              16.085
            ],
            [
              100.802,
              16.068
            ],
            [
              100.76,
              16.029
            ],
            [
              100.679,
              16.029
            ],
            [
              100.661,
              16.036
            ],
            [
              100.608,
              16.028
            ],
            [
              100.584,
              15.992
            ],
            [
              100.508,
              15.955
            ],
            [
              100.44,
              15.974
            ],
            [
              100.403,
              15.97
            ],
            [
              100.373,
              15.945
            ],
            [
              100.358,
              15.893
            ],
            [
              100.31,
              15.896
            ],
            [
              100.258,
              15.862
            ],
            [
              100.258,
              15.756
            ],
            [
              100.209,
              15.725
            ],
            [
              100.2,
              15.735
            ],
            [
              100.142,
              15.701
            ],
            [
              100.08,
              15.756
            ],
            [
              100.088,
              15.768
            ],
            [
              100.051,
              15.804
            ],
            [
              100.052,
              15.871
            ],
            [
              99.998,
              15.912
            ],
            [
              99.945,
              15.91
            ],
            [
              99.876,
              15.972
            ],
            [
              99.823,
              15.998
            ],
            [
              99.803,
              16.025
            ],
            [
              99.776,
              16.028
            ],
            [
              99.738,
              16.062
            ],
            [
              99.661,
              16.085
            ],
            [
              99.627,
              16.11
            ],
            [
              99.553,
              16.117
            ],
            [
              99.518,
              16.109
            ],
            [
              99.489,
              16.04
            ],
            [
              99.466,
              16.015
            ],
            [
              99.43,
              15.981
            ],
            [
              99.433,
              15.974
            ],
            [
              99.437,
              15.967
            ],
            [
              99.494,
              15.985
            ],
            [
              99.558,
              15.976
            ],
            [
              99.621,
              15.938
            ],
            [
              99.656,
              15.889
            ],
            [
              99.642,
              15.849
            ],
            [
              99.742,
              15.757
            ],
            [
              99.809,
              15.756
            ],
            [
              99.854,
              15.746
            ],
            [
              99.878,
              15.753
            ],
            [
              99.932,
              15.747
            ],
            [
              99.942,
              15.735
            ],
            [
              99.927,
              15.685
            ],
            [
              99.942,
              15.625
            ],
            [
              99.94,
              15.533
            ],
            [
              99.976,
              15.525
            ],
            [
              100.047,
              15.547
            ],
            [
              100.086,
              15.541
            ],
            [
              100.114,
              15.508
            ],
            [
              100.11,
              15.452
            ],
            [
              100.074,
              15.382
            ],
            [
              100.099,
              15.338
            ],
            [
              100.08,
              15.304
            ],
            [
              100.055,
              15.286
            ],
            [
              100.049,
              15.236
            ],
            [
              100.105,
              15.192
            ],
            [
              100.149,
              15.123
            ],
            [
              100.137,
              15.107
            ],
            [
              100.153,
              15.061
            ],
            [
              100.145,
              15.005
            ],
            [
              100.187,
              14.908
            ],
            [
              100.217,
              14.912
            ],
            [
              100.227,
              14.885
            ],
            [
              100.213,
              14.816
            ],
            [
              100.24,
              14.776
            ],
            [
              100.269,
              14.759
            ],
            [
              100.273,
              14.707
            ],
            [
              100.259,
              14.682
            ],
            [
              100.293,
              14.639
            ],
            [
              100.285,
              14.608
            ],
            [
              100.258,
              14.569
            ],
            [
              100.279,
              14.501
            ],
            [
              100.266,
              14.458
            ],
            [
              100.283,
              14.409
            ],
            [
              100.265,
              14.381
            ],
            [
              100.254,
              14.322
            ],
            [
              100.269,
              14.293
            ],
            [
              100.251,
              14.252
            ],
            [
              100.264,
              14.223
            ],
            [
              100.257,
              14.173
            ],
            [
              100.291,
              14.169
            ],
            [
              100.277,
              14.084
            ],
            [
              100.259,
              14.042
            ],
            [
              100.259,
              13.988
            ],
            [
              100.271,
              13.963
            ],
            [
              100.256,
              13.924
            ],
            [
              100.276,
              13.909
            ],
            [
              100.327,
              13.801
            ],
            [
              100.33,
              13.712
            ],
            [
              100.344,
              13.654
            ],
            [
              100.369,
              13.642
            ],
            [
              100.388,
              13.592
            ],
            [
              100.386,
              13.492
            ],
            [
              100.39,
              13.493
            ],
            [
              100.391,
              13.493
            ],
            [
              100.39,
              13.493
            ],
            [
              100.391,
              13.493
            ],
            [
              100.402,
              13.493
            ],
            [
              100.403,
              13.493
            ],
            [
              100.404,
              13.493
            ],
            [
              100.403,
              13.493
            ],
            [
              100.404,
              13.493
            ],
            [
              100.411,
              13.495
            ],
            [
              100.412,
              13.495
            ],
            [
              100.414,
              13.494
            ],
            [
              100.414,
              13.495
            ],
            [
              100.414,
              13.494
            ],
            [
              100.414,
              13.495
            ],
            [
              100.417,
              13.495
            ],
            [
              100.423,
              13.496
            ],
            [
              100.424,
              13.497
            ],
            [
              100.423,
              13.496
            ],
            [
              100.424,
              13.497
            ],
            [
              100.427,
              13.497
            ],
            [
              100.446,
              13.501
            ],
            [
              100.462,
              13.5
            ],
            [
              100.463,
              13.5
            ],
            [
              100.462,
              13.5
            ],
            [
              100.463,
              13.5
            ],
            [
              100.468,
              13.503
            ],
            [
              100.475,
              13.502
            ],
            [
              100.477,
              13.502
            ],
            [
              100.49,
              13.503
            ],
            [
              100.49,
              13.504
            ],
            [
              100.49,
              13.503
            ],
            [
              100.49,
              13.504
            ],
            [
              100.497,
              13.508
            ],
            [
              100.509,
              13.508
            ],
            [
              100.531,
              13.51
            ],
            [
              100.56,
              13.515
            ],
            [
              100.561,
              13.514
            ],
            [
              100.566,
              13.516
            ],
            [
              100.592,
              13.551
            ],
            [
              100.628,
              13.522
            ],
            [
              100.679,
              13.508
            ]
          ]
        ]
      }
    }
  ]
}