{
  "type": "FeatureCollection",
  "features": [
    {
      "type": "Feature",
      "properties": {
        "basin_slug": "bang-pakong",
        "basin_name_th": "ลุ่มน้ำบางปะกง",
        "source": "ThaiWater (HII Official)",
        "min_lat": 13.038,
        "max_lat": 14.514,
        "min_lon": 100.617,
        "max_lon": 102.546
      },
      "geometry": {
        "type": "Polygon",
        "coordinates": [
          [
            [
              101.062,
              14.415
            ],
            [
              101.078,
              14.396
            ],
            [
              101.089,
              14.369
            ],
            [
              101.072,
              14.325
            ],
            [
              101.036,
              14.267
            ],
            [
              101.002,
              14.232
            ],
            [
              100.955,
              14.198
            ],
            [
              100.997,
              14.122
            ],
            [
              100.955,
              14.098
            ],
            [
              100.904,
              14.08
            ],
            [
              100.76,
              14.03
            ],
            [
              100.686,
              13.999
            ],
            [
              100.617,
              13.983
            ],
            [
              100.632,
              13.92
            ],
            [
              100.685,
              13.93
            ],
            [
              100.722,
              13.914
            ],
            [
              100.722,
              13.859
            ],
            [
              100.742,
              13.822
            ],
            [
              100.748,
              13.821
            ],
            [
              100.747,
              13.723
            ],
            [
              100.732,
              13.698
            ],
            [
              100.7,
              13.607
            ],
            [
              100.679,
              13.508
            ],
            [
              100.775,
              13.492
            ],
            [
              100.82,
              13.488
            ],
            [
              100.883,
              13.472
            ],
            [
              100.93,
              13.463
            ],
            [
              100.979,
              13.47
            ],
            [
              100.993,
              13.471
            ],
            [
              101.002,
              13.405
            ],
            [
              101.034,
              13.354
            ],
            [
              101.041,
              13.319
            ],
            [
              101.024,
              13.286
            ],
            [
              101.059,
              13.261
            ],
            [
              101.062,
              13.243
            ],
            [
              101.061,
              13.232
            ],
            [
              101.074,
              13.218
            ],
            [
              101.089,
              13.184
            ],
            [
              101.128,
              13.181
            ],
            [
              101.148,
              13.142
            ],
            [
              101.19,
              13.148
            ],
            [
              101.205,
              13.132
            ],
            [
              101.207,
              13.129
            ],
            [
              101.234,
              13.107
            ],
            [
              101.3,
              13.12
            ],
            [
              101.322,
              13.143
            ],
            [
              101.346,
              13.191
            ],
            [
              101.381,
              13.214
            ],
            [
              101.392,
              13.199
            ],
            [
              101.412,
              13.177
            ],
            [
              101.416,
              13.166
            ],
            [
              101.446,
              13.155
            ],
            [
              101.488,
              13.193
            ],
            [
              101.502,
              13.199
            ],
            [
              101.505,
              13.235
            ],
            [
              101.507,
              13.284
            ],
            [
              101.562,
              13.3
            ],
            [
              101.563,
              13.304
            ],
            [
              101.566,
              13.307
            ],
            [
              101.563,
              13.324
            ],
            [
              101.564,
              13.325
            ],
            [
              101.578,
              13.328
            ],
            [
              101.592,
              13.314
            ],
            [
              101.595,
              13.312
            ],
            [
              101.599,
              13.305
            ],
            [
              101.606,
              13.308
            ],
            [
              101.636,
              13.29
            ],
            [
              101.638,
              13.292
            ],
            [
              101.687,
              13.244
            ],
            [
              101.688,
              13.232
            ],
            [
              101.714,
              13.206
            ],
            [
              101.772,
              13.183
            ],
            [
              101.825,
              13.233
            ],
            [
              101.873,
              13.241
            ],
            [
              101.876,
              13.223
            ],
            [
              101.904,
              13.269
            ],
            [
              101.906,
              13.287
            ],
            [
              101.956,
              13.299
            ],
            [
              101.991,
              13.333
            ],
            [
              102.028,
              13.267
            ],
            [
              102.033,
              13.208
            ],
            [
              102.032,
              13.203
            ],
            [
              102.034,
              13.196
            ],
            [
              102.037,
              13.188
            ],
            [
              102.038,
              13.161
            ],
            [
              102.064,
              13.141
            ],
            [
              102.07,
              13.135
            ],
            [
              102.115,
              13.129
            ],
            [
              102.128,
              13.105
            ],
            [
              102.154,
              13.085
            ],
            [
              102.161,
              13.045
            ],
            [
              102.166,
              13.038
            ],
            [
              102.167,
              13.038
            ],
            [
              102.212,
              13.061
            ],
            [
              102.208,
              13.093
            ],
            [
              102.25,
              13.115
            ],
            [
              102.256,
              13.118
            ],
            [
              102.278,
              13.119
            ],
            [
              102.271,
              13.159
            ],
            [
              102.271,
              13.162
            ],
            [
              102.275,
              13.177
            ],
            [
              102.306,
              13.209
            ],
            [
              102.294,
              13.246
            ],
            [
              102.347,
              13.3
            ],
            [
              102.318,
              13.344
            ],
            [
              102.328,
              13.4
            ],
            [
              102.348,
              13.42
            ],
            [
              102.343,
              13.445
            ],
            [
              102.308,
              13.478
            ],
            [
              102.289,
              13.522
            ],
            [
              102.287,
              13.576
            ],
            [
              102.258,
              13.606
            ],
            [
              102.242,
              13.648
            ],
            [
              102.217,
              13.656
            ],
            [
              102.22,
              13.68
            ],
            [
              102.247,
              13.696
            ],
            [
              102.277,
              13.763
            ],
            [
              102.26,
              13.778
            ],
            [
              102.272,
              13.811
            ],
            [
              102.263,
              13.839
            ],
            [
              102.31,
              13.848
            ],
            [
              102.335,
              13.836
            ],
            [
              102.369,
              13.871
            ],
            [
              102.377,
              13.895
            ],
            [
              102.411,
              13.896
            ],
            [
              102.46,
              13.953
            ],
            [
              102.48,
              13.966
            ],
            [
              102.486,
              14.0
            ],
            [
              102.546,
              14.028
            ],
            [
              102.504,
              14.043
            ],
            [
              102.465,
              14.037
            ],
            [
              102.431,
              14.094
            ],
            [
              102.47,
              14.132
            ],
            [
              102.419,
              14.161
            ],
            [
              102.349,
              14.127
            ],
            [
              102.31,
              14.122
            ],
            [
              102.288,
              14.135
            ],
            [
              102.272,
              14.129
            ],
            [
              102.25,
              14.14
            ],
            [
              102.235,
              14.145
            ],
            [
              102.19,
              14.197
            ],
            [
              102.167,
              14.174
            ],
            [
              102.168,
              14.143
            ],
            [
              102.129,
              14.143
            ],
            [
              102.073,
              14.163
            ],
            [
              102.035,
              14.198
            ],
            [
              102.011,
              14.203
            ],
            [
              101.969,
              14.226
            ],
            [
              101.948,
              14.266
            ],
            [
              101.934,
              14.271
            ],
            [
              101.933,
              14.28
            ],
            [
              101.932,
              14.28
            ],
            [
              101.933,
              14.28
            ],
            [
              101.932,
              14.28
            ],
            [
              101.934,
              14.294
            ],
            [
              101.95,
              14.31
            ],
            [
              101.976,
              14.352
            ],
            [
              101.96,
              14.366
            ],
            [
              101.957,
              14.372
            ],
            [
              101.909,
              14.354
            ],
            [
              101.884,
              14.397
            ],
            [
              101.868,
              14.387
            ],
            [
              101.868,
              14.379
            ],
            [
              101.843,
              14.364
            ],
            [
              101.823,
              14.35
            ],
            [
              101.795,
              14.358
            ],
            [
              101.788,
              14.359
            ],
            [
              101.765,
              14.347
            ],
            [
              101.742,
              14.308
            ],
            [
              101.638,
              14.408
            ],
            [
              101.597,
              14.439
            ],
            [
              101.546,
              14.436
            ],
            [
              101.528,
              14.426
            ],
            [
              101.485,
              14.46
            ],
            [
              101.436,
              14.441
            ],
            [
              101.447,
              14.424
            ],
            [
              101.435,
              14.389
            ],
            [
              101.392,
              14.382
            ],
            [
              101.374,
              14.394
            ],
            [
              101.38,
              14.394
            ],
            [
              101.372,
              14.408
            ],
            [
              101.371,
              14.425
            ],
            [
              101.355,
              14.442
            ],
            [
              101.313,
              14.436
            ],
            [
              101.298,
              14.456
            ],
            [
              101.288,
              14.467
            ],
            [
              101.278,
              14.509
            ],
            [
              101.276,
              14.512
            ],
            [
              101.267,
              14.506
            ],
            [
              101.264,
              14.503
            ],
            [
              101.262,
              14.501
            ],
            [
              101.225,
              14.473
            ],
            [
              101.172,
              14.514
            ],
            [
              101.156,
              14.495
            ],
            [
              101.147,
              14.483
            ],
            [
              101.133,
              14.468
            ],
            [
              101.125,
              14.46
            ],
            [
              101.066,
              14.429
            ],
            [
              101.062,
              14.415
            ]
          ]
        ]
      }
    }
  ]
}